QIANFAN-17              
1 60395U 24140S   25232.30369174  .00000108  00000+0  14825-3 0  9992
2 60395  88.9844 311.2603 0015801 168.9683 191.1818 13.50965070 51830
QIANFAN-18              
1 60396U 24140T   25232.28321696  .00000102  00000+0  13890-3 0  9992
2 60396  88.9836 310.8049 0015696 152.7157 207.4822 13.50966846 52064
QIANFAN-19              
1 61552U 24185A   25232.31418266  .00000394  00000+0  19957-3 0  9993
2 61552  88.9778  91.0718 0005876 330.2250  29.8601 14.14128281 53494
QIANFAN-20              
1 61553U 24185B   25232.25949187  .00000448  00000+0  25205-3 0  9991
2 61553  88.9777  91.2865 0006331   8.8764 351.2530 14.08679863 53374
QIANFAN-21              
1 61554U 24185C   25232.23015952  .00000533  00000+0  23280-3 0  9990
2 61554  88.9693  90.4103 0011839  26.2743 333.9046 14.22381028 53691
QIANFAN-22              
1 61555U 24185D   25231.87866955  .00000139  00000+0  10866-3 0  9995
2 61555  88.9765  91.8487 0006876   3.9906 356.1318 13.86243056 53023
QIANFAN-23              
1 61556U 24185E   25232.30892907  .00000387  00000+0  18866-3 0  9994
2 61556  88.9771  90.9350 0007144 342.0816  18.0119 14.16101504 53552
QIANFAN-24              
1 61557U 24185F   25232.25930161  .00000518  00000+0  22130-3 0  9999
2 61557  88.9752  90.5332 0008281 324.5176  35.5465 14.23581031 53738
